OBJECT_NAME,OBJECT_ID,EPOCH,MEAN_MOTION,ECCENTRICITY,INCLINATION,RA_OF_ASC_NODE,ARG_OF_PERICENTER,MEAN_ANOMALY,EPHEMERIS_TYPE,CLASSIFICATION_TYPE,NORAD_CAT_ID,ELEMENT_SET_NO,REV_AT_EPOCH,BSTAR,MEAN_MOTION_DOT,MEAN_MOTION_DDOT
H-2A R/B,2006-002B,2026-06-10T07:56:43.878624,15.17975863,.0049642,98.2554,316.5410,286.2738,73.3036,0,U,28932,999,10848,.2794098E-3,.5777E-4,0
RESURS-DK 1,2006-021A,2026-06-10T14:57:32.395104,15.13187895,.00066184,69.9339,356.5440,296.8727,63.1762,0,U,29228,999,10158,.12602717E-3,.2134E-4,0
CZ-4B R/B,2006-046C,2026-06-10T14:15:29.949696,15.17735555,.00312285,97.5460,206.2214,306.8492,52.9878,0,U,29507,999,7413,.18494343E-3,.3707E-4,0
CZ-2C R/B,2007-010B,2026-06-10T13:53:16.768320,14.20274717,.00594112,98.4093,270.2530,25.2704,335.1359,0,U,31114,999,99290,.46482401E-4,.6E-6,0
COSMO-SKYMED 1,2007-023A,2026-06-10T14:02:15.264096,14.97068791,.00010138,97.8852,353.3862,85.1762,274.9575,0,U,31598,999,2880,.18010926E-3,.2016E-4,0
COSMOS 2428,2007-029A,2026-06-10T15:07:51.820032,14.12929426,.00072335,70.9372,8.2450,147.6237,212.5329,0,U,31792,999,97722,-.59218497E-4,-.158E-5,0
SL-16 R/B,2007-029B,2026-06-10T14:31:56.019072,14.14851547,.00022161,70.9763,337.0643,259.0559,164.2324,0,U,31793,999,97851,.18227429E-3,.304E-5,0
KORONAS-FOTON,2009-003A,2026-06-10T12:57:18.341568,15.45584397,.00109815,82.4293,179.1931,169.6002,190.5476,0,U,33504,999,96007,.20562484E-3,.9947E-4,0
CZ-2C R/B,2011-030B,2026-06-10T15:30:31.747392,14.81455252,.00535076,97.8652,117.1506,48.8934,128.0700,0,U,37731,999,80385,.14758401E-3,.113E-4,0
H-2A R/B,2012-025E,2026-06-10T12:48:54.366912,14.95679376,.00441177,98.4814,136.1308,10.8615,349.3546,0,U,38341,999,76209,.25430264E-3,.2814E-4,0
SHIJIAN-16 (SJ-16),2013-057A,2026-06-10T14:29:17.450880,14.92595885,.00169159,74.9736,9.1530,246.0668,113.8749,0,U,39358,999,68536,.97755743E-4,.979E-5,0
SL-4 R/B,2014-021B,2026-06-10T12:25:34.116672,15.41813273,.00915315,51.6054,243.4430,81.7386,279.3966,0,U,39679,999,67058,.21704608E-3,.10415E-3,0
ALOS-2,2014-029A,2026-06-10T13:53:26.998080,14.79471427,.000167,97.9209,258.8375,90.9504,269.1899,0,U,39766,999,65060,.25605729E-3,.1861E-4,0
YAOGAN-29,2015-069A,2026-06-10T15:12:05.582880,14.83079961,.00028307,98.0033,190.2560,65.2533,294.8975,0,U,41038,999,56965,.77578936E-4,.577E-5,0
ASTRO-H (HITOMI),2016-012A,2026-06-10T13:23:59.663616,15.10481808,.00096637,30.9975,116.9979,187.6477,172.4015,0,U,41337,999,56628,.11936388E-3,.2111E-4,0
HXMT (HUIYAN),2017-034A,2026-06-10T14:55:57.203904,15.18434084,.0030201,43.0133,219.5963,103.8721,256.5490,0,U,42758,999,49666,.20608706E-3,.4126E-4,0
SAOCOM 1A,2018-076A,2026-06-10T14:05:58.131168,14.82167638,.00014688,97.8889,348.4322,78.7359,281.4019,0,U,43641,999,41512,-.28824292E-4,-.282E-5,0
H-2A R/B,2018-084L,2026-06-10T14:05:23.185824,15.44898564,.00240852,98.8592,39.0362,62.3302,298.0383,0,U,43682,999,42010,.38665975E-3,.18268E-3,0
SAOCOM 1B,2020-059A,2026-06-10T14:51:00.572832,14.82167150,.00015032,97.8892,347.5578,83.3860,276.7524,0,U,46265,999,31251,.96980366E-4,.72E-5,0
CSS (TIANHE),2021-035A,2026-06-10T13:52:07.326048,15.60534794,.00083266,41.4694,2.2172,24.2094,335.9134,0,U,48274,999,29213,.2570347E-3,.21572E-3,0
COSMOS 2550,2021-056A,2026-06-08T19:23:25.914048,15.33755463,.0008705,67.1416,125.2525,266.0377,93.9783,0,U,48865,999,27743,.19790476E-3,.631E-4,0
CZ-2C R/B,2022-058K,2026-06-10T12:33:49.377888,15.61394602,.0032869,50.1846,198.1808,240.1219,119.6488,0,U,52794,999,22460,.3479118E-3,.30685E-3,0
CZ-2C R/B,2022-132E,2026-06-10T14:12:55.798272,15.70757875,.00168211,97.2903,168.3256,104.5524,255.7605,0,U,54039,999,20491,.43464142E-3,.54381E-3,0
GSLV R/B,2022-138AN,2026-06-10T04:00:23.971968,14.97225780,.0021835,87.3797,135.3419,167.8586,192.3177,0,U,54149,999,19776,.15709064E-3,.1855E-4,0
XRISM,2023-137A,2026-06-10T03:05:51.489024,15.12404798,.0007944,31.0029,45.3183,253.7122,106.2643,0,U,57800,999,15179,.25478E-3,.4635E-4,0
ACS3,2024-077B,2026-06-10T12:42:40.203936,13.93911964,.00574011,97.1673,81.8047,68.3969,292.3300,0,U,59588,999,10711,.50390338E-2,.672E-4,0
CZ-8A R/B,2025-231K,2026-06-10T01:33:06.099552,14.30152912,.01164673,50.0044,69.6181,198.9424,160.7141,0,U,66004,999,3392,.49612733E-4,-.25E-6,0
SZ-21 MODULE,2025-246C,2026-06-10T05:53:58.232832,15.75798052,.0007243,41.4742,350.5399,306.6997,53.3182,0,U,66515,999,3264,.26989E-3,.42781E-3,0
