H-2A R/B                
1 28932U 06002B   26161.33106341  .00005777  00000+0  27941-3 0  9990
2 28932  98.2554 316.5410 0049642 286.2738  73.3036 15.17975863108485
RESURS-DK 1             
1 29228U 06021A   26161.62329161  .00002134  00000+0  12603-3 0  9992
2 29228  69.9339 356.5440 0006618 296.8727  63.1762 15.13187895101581
CZ-4B R/B               
1 29507U 06046C   26161.59409664  .00003707  00000+0  18494-3 0  9993
2 29507  97.5460 206.2214 0031228 306.8492  52.9878 15.17735555 74139
CZ-2C R/B               
1 31114U 07010B   26161.57866630  .00000060  00000+0  46482-4 0  9998
2 31114  98.4093 270.2530 0059411  25.2704 335.1359 14.20274717992907
COSMO-SKYMED 1          
1 31598U 07023A   26161.58489889  .00002016  00000+0  18011-3 0  9995
2 31598  97.8852 353.3862 0001013  85.1762 274.9575 14.97068791 28800
COSMOS 2428             
1 31792U 07029A   26161.63046088 -.00000158  00000+0 -59218-4 0  9995
2 31792  70.9372   8.2450 0007233 147.6237 212.5329 14.12929426977227
SL-16 R/B               
1 31793U 07029B   26161.60550948  .00000304  00000+0  18227-3 0  9993
2 31793  70.9763 337.0643 0002216 259.0559 164.2324 14.14851547978511
KORONAS-FOTON           
1 33504U 09003A   26161.53979562  .00009947  00000+0  20562-3 0  9995
2 33504  82.4293 179.1931 0010981 169.6002 190.5476 15.45584397960074
CZ-2C R/B               
1 37731U 11030B   26161.64620078  .00001130  00000+0  14758-3 0  9997
2 37731  97.8652 117.1506 0053507  48.8934 128.0700 14.81455252803856
H-2A R/B                
1 38341U 12025E   26161.53396258  .00002814  00000+0  25430-3 0  9997
2 38341  98.4814 136.1308 0044117  10.8615 349.3546 14.95679376762090
SHIJIAN-16 (SJ-16)      
1 39358U 13057A   26161.60367420  .00000979  00000+0  97756-4 0  9990
2 39358  74.9736   9.1530 0016915 246.0668 113.8749 14.92595885685365
SL-4 R/B                
1 39679U 14021B   26161.51775598  .00010415  00000+0  21705-3 0  9993
2 39679  51.6054 243.4430 0091531  81.7386 279.3966 15.41813273670582
ALOS-2                  
1 39766U 14029A   26161.57878470  .00001861  00000+0  25606-3 0  9996
2 39766  97.9209 258.8375 0001670  90.9504 269.1899 14.79471427650605
YAOGAN-29               
1 41038U 15069A   26161.63339795  .00000577  00000+0  77579-4 0  9995
2 41038  98.0033 190.2560 0002830  65.2533 294.8975 14.83079961569654
ASTRO-H (HITOMI)        
1 41337U 16012A   26161.55832944  .00002111  00000+0  11936-3 0  9991
2 41337  30.9975 116.9979 0009663 187.6477 172.4015 15.10481808566282
HXMT (HUIYAN)           
1 42758U 17034A   26161.62218986  .00004126  00000+0  20609-3 0  9991
2 42758  43.0133 219.5963 0030201 103.8721 256.5490 15.18434084496665
SAOCOM 1A               
1 43641U 18076A   26161.58747837 -.00000282  00000+0 -28824-4 0  9996
2 43641  97.8889 348.4322 0001468  78.7359 281.4019 14.82167638415127
H-2A R/B                
1 43682U 18084L   26161.58707391  .00018268  00000+0  38666-3 0  9996
2 43682  98.8592  39.0362 0024085  62.3302 298.0383 15.44898564420108
SAOCOM 1B               
1 46265U 20059A   26161.61875663  .00000720  00000+0  96980-4 0  9991
2 46265  97.8892 347.5578 0001503  83.3860 276.7524 14.82167150312514
CSS (TIANHE)            
1 48274U 21035A   26161.57786257  .00021572  00000+0  25703-3 0  9995
2 48274  41.4694   2.2172 0008326  24.2094 335.9134 15.60534794292138
COSMOS 2550             
1 48865U 21056A   26159.80793882  .00006310  00000+0  19790-3 0  9991
2 48865  67.1416 125.2525 0008705 266.0377  93.9783 15.33755463277435
CZ-2C R/B               
1 52794U 22058K   26161.52348817  .00030685  00000+0  34791-3 0  9996
2 52794  50.1846 198.1808 0032869 240.1219 119.6488 15.61394602224603
CZ-2C R/B               
1 54039U 22132E   26161.59231248  .00054381  00000+0  43464-3 0  9995
2 54039  97.2903 168.3256 0016821 104.5524 255.7605 15.70757875204911
GSLV R/B                
1 54149U 22138AN  26161.16694412  .00001855  00000+0  15709-3 0  9991
2 54149  87.3797 135.3419 0021835 167.8586 192.3177 14.97225780197767
XRISM                   
1 57800U 23137A   26161.12906816  .00004635  00000+0  25478-3 0  9991
2 57800  31.0029  45.3183 0007944 253.7122 106.2643 15.12404798151793
ACS3                    
1 59588U 24077B   26161.52963199  .00006720  00000+0  50390-2 0  9998
2 59588  97.1673  81.8047 0057401  68.3969 292.3300 13.93911964107111
CZ-8A R/B               
1 66004U 25231K   26161.06465393 -.00000025  00000+0  49613-4 0  9995
2 66004  50.0044  69.6181 0116467 198.9424 160.7141 14.30152912 33929
SZ-21 MODULE            
1 66515U 25246C   26161.24581288  .00042781  00000+0  26989-3 0  9994
2 66515  41.4742 350.5399 0007243 306.6997  53.3182 15.75798052 32643
